#dP2023  8  6 18  0  0.00000000      96 __u+U ITR00 EXT  IAC
## 2274  64800.00000000   900.00000000 60162 0.7500000000000
+  119   C06C07C08C09C10C11C12C13C14C16C19C20C21C22C23C24C25
+        C26C27C28C29C30C32C33C34C35C36C37C38C39C40C41C42C43
+        C44C45C46E02E03E04E05E07E08E09E10E11E12E13E14E15E18
+        E19E21E24E25E26E27E30E31E33E34E36G01G02G03G04G05G06
+        G07G08G09G10G11G12G13G14G15G16G17G18G19G20G21G22G23
+        G24G25G26G27G28G29G30G31G32J02J03J04R01R02R03R04R05
+        R07R08R09R11R12R13R14R15R16R17R18R19R20R21R22R24R25
++        10 10  8 11 10  8  6  9  9 11  8  9  8  8  9  6  7
++         8  8  8  8  9  9  8  7  7  8  8 10 11 10  9  7  7
++         7  8  9  6  7  7  8  9  7  7  8  8  7  6 11  8  7
++         7  7  7  7  6  7  6  7  7  8  8  8  7  7  8  7  7
++         9  8  8  7  7  7  8  7  8  7  7  6  7  8  7  7  7
++         7  6  8  7  7  8  8  8  7  9  9 11  8  9  8  8  9
++         9  7  6  8  7  6  9  7  8  7  8  9  9  9  6  9  9
%c M  cc GPS ccc cccc cccc cccc cccc ccccc ccccc ccccc ccccc
%c cc cc ccc ccc cccc cccc cccc cccc ccccc ccccc ccccc ccccc
%f  0.0000000  0.000000000  0.00000000000  0.000000000000000
%f  0.0000000  0.000000000  0.00000000000  0.000000000000000
%i    0    0    0    0      0      0      0      0         0
%i    0    0    0    0      0      0      0      0         0
/* IAC                                ULTRA-RAPID PREDICTION
/* S/V CLOCKS ARE ALIGNED TO GNSS TIME                      
/* G:C1WC2W R:C1PC2P E:C1XC5X C:C2IC6I J:C1CC2S             
/* PCV:IGS20_2247 OL/AL:FES2004  NONE     YN ORB:CoN CLK:CoN
*  2023 08 07  1  0  0.00000000
PC06  -7280.387816  23584.303386 -34152.781200    809.110649
PC07 -16731.007964  35528.402584  15128.103304    109.271375
PC08  -2594.813025  38717.160845  16716.155570    399.902005
PC09   2698.675908  26470.998885 -32149.765020    323.686816
PC10 -10244.406165  35401.263428  20306.554255   -137.627447
PC11 -24540.550930  -9958.796216  -8683.385213    766.000433
PC12  -8073.109467 -15726.056914 -21553.499113    849.718611
PC13   1793.753876  40920.225268  10721.752082    329.682426
PC14 -14535.622720  -6697.788650  22864.290632    184.351015
PC16  -9304.015869  22106.370391 -34419.970975    -24.931513
PC19  19391.893217  -3158.566343 -19809.374917   -954.660363
PC20   8730.480323  13817.627878 -22609.060385    380.475903
PC21   8209.023965 -23884.360001  11908.283452   -945.508974
PC22  19517.675775 -19206.489571  -5466.404137   -362.575082
PC23 -12698.617637  11214.328285 -22162.881835   -914.401856
PC24 -13365.194773 -24080.326132  -4430.370325    256.269112
PC25 -18596.010927  -7743.654160 -19309.753003    184.032767
PC26  -1835.076186 -25222.617651  11750.583166   -159.598584
PC27  -1682.139486  15856.500016  22880.205609    180.718633
PC28 -19603.907179   9462.368766  17459.305307    135.041629
PC29  27772.370982   2753.277330   -201.987724    157.482417
PC30  17924.581844  13517.342317  16556.935866     -3.148384
PC32  -8092.582341  23945.788259 -11800.831970   -533.730902
PC33 -19335.421856   3108.109974  19870.160933   -930.933827
PC34 -19137.282949 -13044.398614 -15591.358246    231.545530
PC35  19487.192444 -10089.925133 -17235.297929    573.020550
PC36  18460.821384   9015.984217  18917.566455   -289.489222
PC37    563.324465  24945.556634 -12500.639709   -803.364449
PC38  -7934.073245  34606.321371  22885.248452     96.520058
PC39 -15464.450143  19777.355105 -33861.065587     -4.192018
PC40 -24652.929539  31057.279426  13935.217601    -32.018112
PC41 -19685.392820  18789.453968   6200.819237   -891.690173
PC42  -7596.319671 -15071.246263  22265.961946   -586.192894
PC43 -27699.179250  -3396.824564   -663.103842     34.133437
PC44   1295.515547 -16049.406331 -22807.066265    192.213688
PC45  12324.177438 -11667.784681  22155.972742    -10.980324
PC46  14003.174306  23473.164751   5729.954295    -74.628481
PE02  -3288.217690 -26987.779864 -11689.925713     54.167390
PE03  -6202.369715 -15816.193288  24235.976773    -43.463860
PE04  23873.672550   3957.258387 -17042.454982   -183.674556
PE05  15241.127778 -18537.625723  17333.404920      6.652124
PE07 -27787.197753  10181.950459     28.172017    -65.515309
PE08 -23573.168852  -4145.587999  17406.211510   -126.339902
PE09  27821.598665 -10131.416002   -173.057097   -111.425119
PE10  24413.713400   7856.429913 -14802.593664   -554.193084
PE11  20061.438778  -1571.990457 -21722.557929   2667.222069
PE12  24591.321993  15239.526210  -6248.138959   -648.064925
PE13 -20445.358115    877.095048  21382.958291    -19.401403
PE14  30020.331177  -7196.947992   1267.504553    304.003081
PE15 -24536.321865 -15480.703790   5867.385144    -43.094618
PE18 -24057.146109  -1384.043742  -8781.987186    384.068345
PE19   3251.647663  16672.277281 -24234.540145  -1907.065014
PE21  -9061.277814  27536.145382  -5973.133005   -545.167326
PE24  17048.616124 -11378.754869  21342.070666   -251.678225
PE25   9283.438159 -27388.068417   6328.922532   -609.452739
PE26  -3845.377441  17061.985382  23879.135201    185.325010
PE27 -16872.811461  12141.963199 -21065.917904   -118.192964
PE30 -14505.683639 -10792.013036 -23438.283064   -397.377174
PE31  14668.955904  10235.510211  23596.739414     -2.090059
PE33  13698.813255  22568.684206  13394.084078     -1.812158
PE34 -14241.970341 -22528.665232 -12871.201075    -60.169310
PE36   4452.079298 -16496.539068 -24174.813883    -97.256609
PG01 -21662.759192 -14264.439615   6154.828721    169.597582
PG02 -21424.370662 -15837.889684     72.697729   -568.213955
PG03 -13313.144598  -7398.745268  21627.772751   -199.059518
PG04 -23340.658929  -2134.721426  12616.692125    117.996452
PG05   6504.443621  21655.467218 -14032.097333   -137.819681
PG06  -3771.066093  15436.800156  21324.345464    569.586181
PG07 -19559.623594   -361.672127 -17710.412339    103.100758
PG08 -15321.534452  -9202.762019 -19843.544759   -135.929286
PG09 -25506.538845   6210.772529   4108.516675    -93.154056
PG10  10959.329733 -21907.892513  -9674.934487    -48.233413
PG11   9367.763579  21366.750986  12746.415544   -309.374053
PG12  11413.750058  12068.031777  20466.112788   -409.859829
PG13   6423.011913  14000.776727 -21843.805499    556.913336
PG14 -13434.469019  19291.109288 -12180.233317    146.159713
PG15  16925.294503   7646.701937 -19547.009306     65.216045
PG16   -973.664799 -24021.181965 -11077.018359   -471.511578
PG17 -19472.877495  13843.505878  12145.057179    722.330743
PG18  17634.037181  -2137.918061 -19801.522042   -373.423594
PG19 -12910.589713  15001.691976  17336.458828    354.207805
PG20   1771.273744  26372.046923  -3463.145565    418.596236
PG21 -20606.279806 -17255.755551  -2469.389797    151.127903
PG22   8961.131935 -16170.299424  19466.473248    523.488123
PG23  14875.240755 -11230.214914 -18852.376765     52.002541
PG24  21984.014370  15263.510540    846.572367   -281.904494
PG25  15669.662012  -2953.717823  20888.438571    460.684869
PG26   3968.883646 -26051.538577    876.592145    233.901913
PG27  -2745.504746 -15058.888829 -21931.780577    -17.414578
PG28   5446.330911 -14800.161028  21351.752732     78.259848
PG29  25972.975987  -3380.233420   4683.784608   -607.257524
PG30 -12956.954483   9327.509037 -21128.707567   -498.484560
PG31  -4414.993508 -19961.666233  16541.489255   -221.403554
PG32  15790.736685 -16006.022086  14164.346143   -535.869201
PJ02 -24065.610668  30485.233730 -11687.045947     -2.232584
PJ03 -27510.434076  22440.328978  27793.087544     -0.746640
PJ04 -30615.762251  29014.588402   5890.465170     98.469535
PR01  18084.445353 -17955.009766   1263.737443     62.963807
PR02   6849.264304 -17066.957398  17685.261600    -22.553407
PR03  -8649.699616  -6827.767480  23049.999910     82.809150
PR04 -18874.582496   6930.214509  15730.925528    197.676455
PR05 -19125.093823  16898.068717   -138.430497    116.923062
PR07   9210.175434   6238.145178 -22914.394002     61.853585
PR08  18919.747618  -7173.001845 -15456.098930    -72.012034
PR09   3543.049618  24757.909805  -4771.929593    135.318072
PR11  11843.611869   4793.272607  22089.049781   -125.085770
PR12   6212.802275 -15315.928062  19456.233256     29.905716
PR13  -2263.781833 -24474.412484   6819.497183    -37.884987
PR14 -10517.597530 -19789.337035 -12186.377246     25.060131
PR15 -11759.632207  -3475.801907 -22342.580689     87.220326
PR16  -6104.276619  15053.586770 -19637.758767     17.446338
PR17 -20107.759670 -11686.043804 -10418.372235      6.579994
PR18 -24181.245101  -5369.967376   6191.758354     95.477647
PR19 -17046.101664   2510.978626  18799.858555   -242.564917
PR20   3273.506732  11853.853571  22346.022659    -97.877428
PR21  20762.149164  11527.600574   9353.816691    -28.443757
PR22  23874.170991   5530.474228  -7042.611161    108.738521
PR24  -4217.465637 -12289.597617 -21933.524346    -19.495219
PR25  19518.693166  12730.980662  10406.252088     43.866486
EOF
